[{"OBJECT_NAME":"ICEYE-X7","OBJECT_ID":"2020-068L","EPOCH":"2026-03-09T22:52:28.702272","MEAN_MOTION":15.29152508,"ECCENTRICITY":0.00068409,"INCLINATION":97.7412,"RA_OF_ASC_NODE":31.2076,"ARG_OF_PERICENTER":332.3045,"MEAN_ANOMALY":27.7829,"EPHEMERIS_TYPE":0,"CLASSIFICATION_TYPE":"U","NORAD_CAT_ID":46496,"ELEMENT_SET_NO":999,"REV_AT_EPOCH":29961,"BSTAR":0.0005654802,"MEAN_MOTION_DOT":0.00015947,"MEAN_MOTION_DDOT":0},{"OBJECT_NAME":"STARLINK-34010","OBJECT_ID":"2025-093N","EPOCH":"2026-03-09T10:27:28.056096","MEAN_MOTION":15.27594806,"ECCENTRICITY":0.00023294,"INCLINATION":43.0039,"RA_OF_ASC_NODE":79.3094,"ARG_OF_PERICENTER":290.9216,"MEAN_ANOMALY":69.1387,"EPHEMERIS_TYPE":0,"CLASSIFICATION_TYPE":"U","NORAD_CAT_ID":63848,"ELEMENT_SET_NO":999,"REV_AT_EPOCH":4771,"BSTAR":0.00098401627,"MEAN_MOTION_DOT":0.00026928,"MEAN_MOTION_DDOT":0}]
